[
    {
        "Altitude(m)": 607895.8370551497,
        "Argument of Periapsis(deg)": 0.0,
        "Eccentricity": 0.0,
        "Inclination(deg)": 60.0,
        "Latitude(deg)": 40.9983928720779,
        "Longitude(deg)": 160.08873114410596,
        "Mean Anomaly(deg)": 130.90910000000005,
        "RAAN(deg)": 110.00000000000001,
        "Satellite Name": "Test1 492",
        "Satellite Number": 492,
        "Semi-Major Axis(m)": 6980739.136638005,
        "Time(s)": 0
    },
    {
        "Altitude(m)": 607795.1495331535,
        "Argument of Periapsis(deg)": 0.00010418945913296404,
        "Eccentricity": 0.0,
        "Inclination(deg)": 60.0,
        "Latitude(deg)": 40.53071627502021,
        "Longitude(deg)": 160.58532396743098,
        "Mean Anomaly(deg)": 131.5292061454618,
        "RAAN(deg)": 109.99957995086025,
        "Satellite Name": "Test1 492",
        "Satellite Number": 492,
        "Semi-Major Axis(m)": 6980739.136638005,
        "Time(s)": 10
    }
]